OPTICUBE 04             
1 41851U 16067D   18162.77569913  .00000132  00000-0  16883-4 0  9990
2 41851  97.9230 250.8261 0009117 175.1028 185.0284 14.96666945 86285
AEROCUBE 8D             
1 41852U 16067E   18163.21309081 -.00000117  00000-0 -49882-5 0  9990
2 41852  97.9253 251.1135 0009702 172.6919 187.4445 14.96497108 86330
AEROCUBE 8C             
1 41853U 16067F   18162.89279182 -.00000273  00000-0 -18689-4 0  9995
2 41853  97.9247 250.7526 0010070 176.7723 183.3565 14.96456937 86288
PROMETHEUS 2-1          
1 41854U 16067G   18162.83276993  .00000080  00000-0  12341-4 0  9990
2 41854  97.9250 250.6992 0010510 177.0620 183.0665 14.96558602 86277
PROMETHEUS 2-3          
1 41855U 16067H   18163.23656345  .00000218  00000-0  24476-4 0  9994
2 41855  97.9251 251.1124 0010763 176.1383 183.9923 14.96555954 86338
ITF-2                   
1 41932U 98067KU  18162.78823000  .00025760  00000-0  16563-3 0  9999
2 41932  51.6336   8.6615 0004193 177.9310 182.1708 15.76023226 79913
WASEDA-SAT3             
1 41933U 98067KV  18162.78697330  .00046950  00000-0  22198-3 0  9990
2 41933  51.6344   1.7511 0003802 190.6732 169.4191 15.82525131 80003
AOBA-VELOX 3            
1 41935U 98067KX  18163.45039371  .00041041  00000-0  21860-3 0  9993
2 41935  51.6361   1.0218 0004034 189.6933 170.3992 15.79998011 80175
INS-1B                  
1 41954U 17008G   18162.93310696  .00001051  00000-0  47689-4 0  9999
2 41954  97.4463 226.9422 0009889  22.2075 337.9588 15.22998811 73208
BGUSAT                  
1 41999U 17008BD  18162.91160089  .00001669  00000-0  70626-4 0  9997
2 41999  97.4508 227.9624 0009430  40.0760 320.1172 15.24575637 72620
DIDO-2                  
1 42000U 17008BE  18163.46674591  .00000788  00000-0  36319-4 0  9992
2 42000  97.4481 227.9006 0009604  38.3284 321.8634 15.23190699 72689
PEASSS                  
1 42015U 17008BV  18163.18503524  .00000939  00000-0  41704-4 0  9996
2 42015  97.4478 228.0717 0007711  48.2158 311.9737 15.23999236 73150
AL-FARABI 1             
1 42016U 17008BW  18163.44158898  .00001249  00000-0  53873-4 0  9991
2 42016  97.4486 228.5204 0007580  47.9908 312.1974 15.24410922 73325
NAYIF-1 (EO-88)         
1 42017U 17008BX  18163.17335671  .00001178  00000-0  50914-4 0  9992
2 42017  97.4483 228.2604 0007574  48.9586 311.2305 15.24434082 73309
HAVELSAT                
1 42700U 98067LH  18163.44120493  .00022294  00000-0  17850-3 0  9992
2 42700  51.6356  19.0462 0003805 216.1439 143.9302 15.70970736 61278
CXBN-2                  
1 42704U 98067LM  18163.01580084  .00021505  00000-0  17580-3 0  9999
2 42704  51.6366  22.2226 0002720 152.5417 207.5725 15.70498141 61115
ICECUBE                 
1 42705U 98067LN  18163.00722766  .00054755  00000-0  30366-3 0  9994
2 42705  51.6451  14.7376 0002959 192.5961 167.4967 15.78983997 61270
PHOENIX                 
1 42706U 98067LP  18163.01170918  .00015560  00000-0  13692-3 0  9996
2 42706  51.6365  22.9400 0002020 150.1792 209.9321 15.68971349 61098
X-CUBESAT               
1 42707U 98067LQ  18163.55075399  .00023296  00000-0  18242-3 0  9994
2 42707  51.6329  18.2131 0002233 161.1045 199.0036 15.71478298 61199
QBEE50-LTU-OC           
1 42708U 98067LR  18163.04977614  .00021286  00000-0  17332-3 0  9996
2 42708  51.6370  21.6773 0002088 158.1952 201.9135 15.70602757 61064
ALTAIR PATHFINDER       
1 42711U 98067LS  18163.20951300  .00010327  00000-0  11154-3 0  9992
2 42711  51.6372  28.7763 0004342 153.8105 206.3111 15.64278081 60697
SHARC                   
1 42712U 98067LT  18163.21216572  .00016740  00000-0  17858-3 0  9991
2 42712  51.6388  30.3502 0003201 158.3141 201.7990 15.64077622 60915
ZA-AEROSAT              
1 42713U 98067LU  18163.22745204  .00016298  00000-0  15090-3 0  9996
2 42713  51.6359  24.3696 0003001 144.7068 215.4127 15.67671723 60757
LINK                    
1 42714U 98067LV  18163.39332430  .00058030  00000-0  31100-3 0  9998
2 42714  51.6256  12.5472 0003008 172.6425 187.4621 15.79715713 61039
CSUNSAT 1               
1 42715U 98067LW  18163.18478977  .00015930  00000-0  14417-3 0  9997
2 42715  51.6367  24.1046 0004514 149.3942 210.7319 15.68252949 60754
SPACECUBE               
1 42717U 98067LY  18163.01213028  .00020734  00000-0  16936-3 0  9991
2 42717  51.6346  22.1540 0002766 203.6800 156.4070 15.70545004 60136
HOOPOE                  
1 42718U 98067LZ  18163.18053859  .00028671  00000-0  20824-3 0  9993
2 42718  51.6349  18.7811 0002896 203.9950 156.0914 15.73131927 60192
CHALLENGER              
1 42721U 98067MA  18163.00174684  .00093363  00000-0  36515-3 0  9992
2 42721  51.6282   9.8994 0005497 217.2845 142.7778 15.86221952 59994
NJUST-1                 
1 42722U 98067MB  18163.22125147  .00014148  00000-0  13670-3 0  9998
2 42722  51.6367  25.8496 0005305 201.1500 158.9277 15.66735804 59809
UNSW-ECO                
1 42723U 98067MC  18163.18347421  .00032548  00000-0  22877-3 0  9998
2 42723  51.6377  18.8328 0004817 200.0152 160.0659 15.73822226 59873
LILACSAT-1              
1 42725U 98067ME  18163.46195424  .00019978  00000-0  17284-3 0  9993
2 42725  51.6367  22.1986 0004381 200.3489 159.7334 15.69170917 59776
NSIGHT-1                
1 42726U 98067MF  18163.51371525  .00005271  00000-0  66445-4 0  9993
2 42726  51.6397  30.8638 0004975 206.4312 153.6429 15.61465011 59672
SNUSAT-1                
1 42727U 98067MG  18163.15486386  .00018917  00000-0  16444-3 0  9990
2 42727  51.6349  23.8460 0006464 170.6503 189.4616 15.69085876 59696
I-INSPIRE II            
1 42731U 98067ML  18163.05149037  .00031017  00000-0  21263-3 0  9994
2 42731  51.6345  18.6258 0005786 165.1497 194.9674 15.74424624 59645
POLYITAN-2-SAU          
1 42732U 98067MM  18163.04662235  .00021636  00000-0  17141-3 0  9990
2 42732  51.6357  21.6318 0005941 158.8549 201.2695 15.71235474 59601
SNUSAT-1B               
1 42733U 98067MN  18163.06511408  .00020613  00000-0  17380-3 0  9997
2 42733  51.6359  23.2724 0006111 161.3150 198.8073 15.69766182 59580
EXALTA-1                
1 42734U 98067MP  18163.22638066  .00035667  00000-0  23741-3 0  9999
2 42734  51.6321  17.5168 0006275 186.0416 174.0509 15.75028459 59628
BEEAGLESAT              
1 42736U 98067MR  18163.05747926  .00016553  00000-0  14839-3 0  9999
2 42736  51.6358  24.7214 0005544 198.1998 161.8801 15.68447935 59624
UCLSAT                  
1 42765U 17036A   18163.14619966  .00001009  00000-0  47353-4 0  9998
2 42765  97.4011 223.0762 0013639  94.2873 265.9922 15.21841990 53941
LITUANICASAT-2          
1 42768U 17036D   18163.46500533  .00001775  00000-0  82008-4 0  9991
2 42768  97.4027 222.9926 0017540  84.2993 276.0242 15.21359276 53846
AALTO-1                 
1 42775U 17036L   18162.83495356  .00000675  00000-0  33688-4 0  9993
2 42775  97.4006 222.2682 0015972  84.4730 275.8327 15.20743689 53688
URSA MAIOR              
1 42776U 17036M   18163.41396467  .00000761  00000-0  37513-4 0  9999
2 42776  97.4012 222.8868 0015814  82.8850 277.4183 15.20821466 53776
COMPASS 2               
1 42777U 17036N   18163.47453675  .00001350  00000-0  62536-4 0  9999
2 42777  97.4032 223.3251 0014779  85.9412 274.3513 15.21721104 53792
DIAMOND RED             
1 42783U 17036U   18163.14383342  .00000848  00000-0  40736-4 0  9992
2 42783  97.4012 222.9335 0014229  94.2829 266.0034 15.21450944 53742
PEGASUS                 
1 42784U 17036V   18162.78845232  .00000962  00000-0  45530-4 0  9997
2 42784  97.4014 222.6517 0014135  95.4245 264.8604 15.21651306 53693
DIAMOND GREEN           
1 42785U 17036W   18163.40580423  .00000873  00000-0  41834-4 0  9990
2 42785  97.4015 223.2041 0014127  93.9143 266.3708 15.21453966 53778
DIAMOND BLUE            
1 42786U 17036X   18163.40494082  .00000884  00000-0  42327-4 0  9996
2 42786  97.4014 223.2034 0013962  94.1526 266.1306 15.21453652 53778
NUDTSAT                 
1 42787U 17036Y   18162.90598976  .00001437  00000-0  65419-4 0  9990
2 42787  97.4022 222.9634 0013699  94.9268 265.3532 15.22222757 53568
SUCHAI                  
1 42788U 17036Z   18162.68090953  .00001126  00000-0  52399-4 0  9996
2 42788  97.4017 222.6417 0013759  95.6322 264.6483 15.21917393 53759
SKCUBE                  
1 42789U 17036AA  18162.94319393  .00001075  00000-0  50211-4 0  9992
2 42789  97.4014 222.8950 0013591  94.8285 265.4504 15.21881653 53712
VZLUSAT-1               
1 42790U 17036AB  18162.82963231  .00001424  00000-0  64823-4 0  9999
2 42790  97.4018 222.8959 0013269  95.4962 264.7788 15.22243201 53705
ROBUSTA-1B              
1 42792U 17036AD  18162.91235270  .00001123  00000-0  52099-4 0  9994
2 42792  97.4012 222.9259 0013165  95.8448 264.4289 15.22022824 53724
CICERO 6                
1 42793U 17036AE  18163.16907286  .00000724  00000-0  34813-4 0  9996
2 42793  97.4005 223.1767 0012305  95.9519 264.3120 15.21868179 53834
D-SAT                   
1 42794U 17036AF  18162.94265406  .00000153  00000-0  19139-4 0  9993
2 42794  97.5918 217.7974 0125636 300.0800  58.8009 14.90868976 52946
TOKI                    
1 42820U 98067MU  18162.86997318  .00015722  00000-0  14642-3 0  9992
2 42820  51.6360  27.9776 0003727 139.0128 221.1149 15.67557306 53047
MAZAALAI (NUMSAT-1)     
1 42822U 98067MW  18162.90259948  .00016131  00000-0  15176-3 0  9997
2 42822  51.6363  28.2010 0003662 142.2967 217.8286 15.67282154 53020
BRAC ONNESHA            
1 42823U 98067MX  18163.09019643  .00016771  00000-0  15689-3 0  9994
2 42823  51.6369  27.2210 0005720 162.9288 197.1901 15.67379764 53039
NIGERIAEDUSAT-1         
1 42824U 98067MY  18162.92242370  .00015447  00000-0  14615-3 0  9998
2 42824  51.6372  28.3666 0005614 162.7517 197.3670 15.67173282 53027
CORVUS BC2              
1 42846U 17042X   18162.90759184 -.00000037  00000-0  16664-5 0  9998
2 42846  97.5980  65.9720 0008772 205.9582 154.1198 14.91818398 49585
